H1 CPF 01  gfz 2022 06 21 12  6722 tandemx   
H2 1003001  6202 36605    2022 06 21 12 59 42 2022 06 26 00 00 42   120 1 1  0 0 0
H9
10 0 59751  79902.000000  0    -256777.847  -1414060.663   6726074.634
10 0 59751  80022.000000  0    -691137.227   -607540.041   6815848.034
10 0 59751  80142.000000  0   -1099165.614    216951.873   6785863.639
10 0 59751  80262.000000  0   -1473560.256   1044505.238   6636643.461
10 0 59751  80382.000000  0   -1807864.204   1860033.440   6370791.127
10 0 59751  80502.000000  0   -2096578.224   2648547.407   5992949.464
10 0 59751  80622.000000  0   -2335252.036   3395431.738   5509724.138
10 0 59751  80742.000000  0   -2520553.721   4086717.682   4929574.649
10 0 59751  80862.000000  0   -2650317.048   4709349.596   4262672.842
10 0 59751  80982.000000  0   -2723564.339   5251438.695   3520729.045
10 0 59751  81102.000000  0   -2740504.361   5702498.389   2716788.064
10 0 59751  81222.000000  0   -2702505.040   6053654.925   1864998.916
10 0 59751  81342.000000  0   -2612041.941   6297829.174    980362.486
10 0 59751  81462.000000  0   -2472622.863   6429884.726     78461.473
10 0 59751  81582.000000  0   -2288690.897   6446738.382   -824822.460
10 0 59751  81702.000000  0   -2065508.824   6347430.142  -1713597.041
10 0 59751  81822.000000  0   -1809025.297   6133147.236  -2572252.103
10 0 59751  81942.000000  0   -1525728.026   5807202.476  -3385738.416
10 0 59751  82062.000000  0   -1222489.768   5374973.930  -4139832.765
10 0 59751  82182.000000  0    -906410.035   4843804.423  -4821385.782
10 0 59751  82302.000000  0    -584656.154   4222865.303  -5418545.809
10 0 59751  82422.000000  0    -264307.044   3522988.404  -5920957.943
10 0 59751  82542.000000  0      47797.160   2756468.123  -6319934.334
10 0 59751  82662.000000  0     345195.591   1936839.366  -6608592.293
10 0 59751  82782.000000  0     621934.906   1078638.055  -6781961.966
10 0 59751  82902.000000  0     872684.128    197145.333  -6837063.399
10 0 59751  83022.000000  0    1092833.807   -691879.939  -6772951.895
10 0 59751  83142.000000  0    1278577.983  -1572476.838  -6590730.987
10 0 59751  83262.000000  0    1426978.272  -2428760.593  -6293534.740
10 0 59751  83382.000000  0    1536010.292  -3245201.996  -5886481.143
10 0 59751  83502.000000  0    1604590.525  -4006906.763  -5376594.680
10 0 59751  83622.000000  0    1632583.090  -4699888.256  -4772694.813
10 0 59751  83742.000000  0    1620787.312  -5311326.354  -4085254.229
10 0 59751  83862.000000  0    1570905.032  -5829812.125  -3326228.505
10 0 59751  83982.000000  0    1485487.365  -6245571.037  -2508855.730
10 0 59751  84102.000000  0    1367863.433  -6550658.631  -1647429.847
10 0 59751  84222.000000  0    1222051.870  -6739124.091   -757051.234
10 0 59751  84342.000000  0    1052655.485  -6807137.164    146641.043
10 0 59751  84462.000000  0     864743.821  -6753073.180   1047750.775
10 0 59751  84582.000000  0     663724.862  -6577555.055   1930412.180
10 0 59751  84702.000000  0     455210.428  -6283449.777   2779078.803
10 0 59751  84822.000000  0     244877.347  -5875817.642   3578806.976
10 0 59751  84942.000000  0      38328.001  -5361817.453   4315524.184
10 0 59751  85062.000000  0    -159044.962  -4750572.628   4976279.663
10 0 59751  85182.000000  0    -342186.909  -4052999.147   5549472.719
10 0 59751  85302.000000  0    -506499.099  -3281600.963   6025054.672
10 0 59751  85422.000000  0    -647944.262  -2450235.814   6394700.476
10 0 59751  85542.000000  0    -763137.586  -1573860.224   6651946.445
10 0 59751  85662.000000  0    -849421.456   -668258.393   6792297.535
10 0 59751  85782.000000  0    -904923.178    250243.573   6813302.406
10 0 59751  85902.000000  0    -928594.141   1165072.367   6714593.660
10 0 59751  86022.000000  0    -920229.052   2059706.121   6497893.730
10 0 59751  86142.000000  0    -880465.818   2917972.306   6166986.651
10 0 59751  86262.000000  0    -810766.479   3724340.752   5727656.333
10 0 59751  86382.000000  0    -713379.001   4464207.472   5187590.568
10 0 59752    102.000000  0    -591280.556   5124163.853   4556253.009
10 0 59752    222.000000  0    -448103.673   5692248.411   3844722.162
10 0 59752    342.000000  0    -288045.603   6158170.590   3065500.115
10 0 59752    462.000000  0    -115765.386   6513509.700   2232296.700
10 0 59752    582.000000  0      63732.518   6751878.722   1359782.478
10 0 59752    702.000000  0     245224.582   6869045.056    463324.837
10 0 59752    822.000000  0     423399.996   6863010.633   -441289.722
10 0 59752    942.000000  0     592995.577   6734046.863  -1338143.032
10 0 59752   1062.000000  0     748928.251   6484682.363  -2211474.140
10 0 59752   1182.000000  0     886422.640   6119646.563  -3045962.818
10 0 59752   1302.000000  0    1001131.832   5645770.489  -3827002.553
10 0 59752   1422.000000  0    1089247.859   5071847.324  -4540957.570
10 0 59752   1542.000000  0    1147599.226   4408456.579  -5175398.344
10 0 59752   1662.000000  0    1173733.346   3667757.484  -5719311.172
10 0 59752   1782.000000  0    1165981.835   2863257.444  -6163280.439
10 0 59752   1902.000000  0    1123507.992   2009559.128  -6499640.516
10 0 59752   2022.000000  0    1046335.683   1122094.056  -6722595.759
10 0 59752   2142.000000  0     935359.450    216846.061  -6828311.169
10 0 59752   2262.000000  0     792335.953   -689932.258  -6814971.069
10 0 59752   2382.000000  0     619856.212  -1582005.128  -6682805.542
10 0 59752   2502.000000  0     421300.040  -2443435.639  -6434085.728
10 0 59752   2622.000000  0     200772.936  -3258863.292  -6073091.272
10 0 59752   2742.000000  0     -36974.978  -4013775.650  -5606044.925
10 0 59752   2862.000000  0    -286644.855  -4694765.717  -5041014.948
10 0 59752   2982.000000  0    -542499.668  -5289773.445  -4387787.668
10 0 59752   3102.000000  0    -798487.938  -5788306.903  -3657709.019
10 0 59752   3222.000000  0   -1048377.839  -6181637.591  -2863496.202
10 0 59752   3342.000000  0   -1285898.914  -6462965.180  -2019022.430
10 0 59752   3462.000000  0   -1504888.486  -6627548.476  -1139076.970
10 0 59752   3582.000000  0   -1699438.767  -6672797.079   -239103.863
10 0 59752   3702.000000  0   -1864041.247  -6598320.631    665074.529
10 0 59752   3822.000000  0   -1993724.936  -6405934.143   1557543.306
10 0 59752   3942.000000  0   -2084184.430  -6099618.727   2422584.215
10 0 59752   4062.000000  0   -2131894.110  -5685438.156   3244961.669
10 0 59752   4182.000000  0   -2134205.284  -5171413.456   4010198.366
10 0 59752   4302.000000  0   -2089424.161  -4567359.930   4704834.519
10 0 59752   4422.000000  0   -1996869.408  -3884691.604   5316666.158
10 0 59752   4542.000000  0   -1856908.240  -3136196.317   5834959.570
10 0 59752   4662.000000  0   -1670968.685  -2335786.983   6250635.458
10 0 59752   4782.000000  0   -1441528.816  -1498237.621   6556421.796
10 0 59752   4902.000000  0   -1172084.539   -638907.111   6746975.660
10 0 59752   5022.000000  0    -867096.703    226544.911   6818970.158
10 0 59752   5142.000000  0    -531917.561   1082442.481   6771148.775
10 0 59752   5262.000000  0    -172696.672   1913376.928   6604346.635
10 0 59752   5382.000000  0     203731.859   2704484.141   6321476.720
10 0 59752   5502.000000  0     589978.555   3441710.441   5927481.862
10 0 59752   5622.000000  0     978241.811   4112064.444   5429253.801
10 0 59752   5742.000000  0    1360463.576   4703850.323   4835518.431
10 0 59752   5862.000000  0    1728494.689   5206878.674   4156688.417
10 0 59752   5982.000000  0    2074266.560   5612648.940   3404685.337
10 0 59752   6102.000000  0    2389966.877   5914502.994   2592734.093
10 0 59752   6222.000000  0    2668212.510   6107744.248   1735127.403
10 0 59752   6342.000000  0    2902218.053   6189716.163    846968.810
10 0 59752   6462.000000  0    3085952.606   6159839.169    -56100.558
10 0 59752   6582.000000  0    3214283.183   6019606.578   -958185.143
10 0 59752   6702.000000  0    3283100.939   5772538.352  -1843423.170
10 0 59752   6822.000000  0    3289426.378   5424094.997  -2696272.904
10 0 59752   6942.000000  0    3231491.439   4981553.008  -3501791.925
10 0 59752   7062.000000  0    3108795.299   4453844.811  -4245901.867
10 0 59752   7182.000000  0    2922133.923   3851370.015  -4915632.760
10 0 59752   7302.000000  0    2673602.899   3185782.564  -5499344.335
10 0 59752   7422.000000  0    2366575.130   2469758.518  -5986920.265
10 0 59752   7542.000000  0    2005652.917   1716750.033  -6369933.136
10 0 59752   7662.000000  0    1596596.576    940731.270  -6641777.844
10 0 59752   7782.000000  0    1146232.322    155941.442  -6797774.462
10 0 59752   7902.000000  0     662338.367   -623371.992  -6835241.340
10 0 59752   8022.000000  0     153511.765  -1383206.795  -6753534.884
10 0 59752   8142.000000  0    -370980.229  -2110050.142  -6554058.195
10 0 59752   8262.000000  0    -901364.198  -2791112.685  -6240241.171
10 0 59752   8382.000000  0   -1427538.368  -3414551.009  -5817488.037
10 0 59752   8502.000000  0   -1939259.986  -3969672.141  -5293093.436
10 0 59752   8622.000000  0   -2426341.138  -4447119.632  -4676128.997
10 0 59752   8742.000000  0   -2878850.380  -4839037.828  -3977297.843
10 0 59752   8862.000000  0   -3287314.935  -5139208.704  -3208758.112
10 0 59752   8982.000000  0   -3642919.300  -5343159.271  -2383919.002
10 0 59752   9102.000000  0   -3937696.712  -5448236.842  -1517210.966
10 0 59752   9222.000000  0   -4164708.094  -5453649.224   -623833.139
10 0 59752   9342.000000  0   -4318203.152  -5360468.100    280517.264
10 0 59752   9462.000000  0   -4393759.450  -5171594.821   1179927.698
10 0 59752   9582.000000  0   -4388395.707  -4891688.586   2058559.617
10 0 59752   9702.000000  0   -4300655.363  -4527058.148   2900936.684
10 0 59752   9822.000000  0   -4130659.131  -4085521.158   3692224.992
10 0 59752   9942.000000  0   -3880125.450  -3576234.802   4418500.467
99
